{
    "links": {
        "self": "http://www.neowsapp.com/rest/v1/neo/3840768?api_key=iIulBulltgU6a56xZRHN4H3l9WmuAYTsLGpBGhQ2"
    },
    "id": "3840768",
    "neo_reference_id": "3840768",
    "name": "(2019 GP)",
    "designation": "2019 GP",
    "nasa_jpl_url": "http://ssd.jpl.nasa.gov/sbdb.cgi?sstr=3840768",
    "absolute_magnitude_h": 25.1,
    "estimated_diameter": {
        "kilometers": {
            "estimated_diameter_min": 0.0253837029,
            "estimated_diameter_max": 0.0567596853
        },
        "meters": {
            "estimated_diameter_min": 25.3837029364,
            "estimated_diameter_max": 56.7596852866
        },
        "miles": {
            "estimated_diameter_min": 0.0157726969,
            "estimated_diameter_max": 0.0352688224
        },
        "feet": {
            "estimated_diameter_min": 83.279867942,
            "estimated_diameter_max": 186.2194458756
        }
    },
    "is_potentially_hazardous_asteroid": false,
    "close_approach_data": [
        {
            "close_approach_date": "2019-04-14",
            "close_approach_date_full": "2019-Apr-14 12:12",
            "epoch_date_close_approach": 1555243920000,
            "relative_velocity": {
                "kilometers_per_second": "7.1976066769",
                "kilometers_per_hour": "25911.3840368883",
                "miles_per_hour": "16100.3263755877"
            },
            "miss_distance": {
                "astronomical": "0.0902364516",
                "lunar": "35.1019796724",
                "kilometers": "13499180.955718092",
                "miles": "8388002.0890579896"
            },
            "orbiting_body": "Earth"
        }
    ],
    "orbital_data": {
        "orbit_id": "3",
        "orbit_determination_date": "2019-04-13 07:26:10",
        "first_observation_date": "2019-04-02",
        "last_observation_date": "2019-04-12",
        "data_arc_in_days": 10,
        "observations_used": 21,
        "orbit_uncertainty": "8",
        "minimum_orbit_intersection": ".0779482",
        "jupiter_tisserand_invariant": "4.214",
        "epoch_osculation": "2458577.5",
        "eccentricity": ".3397381983328095",
        "semi_major_axis": "1.637703743480586",
        "inclination": "10.8842525693873",
        "ascending_node_longitude": "24.68280320532029",
        "orbital_period": "765.5110067238464",
        "perihelion_distance": "1.081313224267594",
        "perihelion_argument": "183.7000495221166",
        "aphelion_distance": "2.194094262693578",
        "perihelion_time": "2458589.904804527839",
        "mean_anomaly": "354.1663417105732",
        "mean_motion": ".4702741003564275",
        "equinox": "J2000",
        "orbit_class": {
            "orbit_class_type": "AMO",
            "orbit_class_description": "Near-Earth asteroid orbits similar to that of 1221 Amor",
            "orbit_class_range": "1.017 AU < q (perihelion) < 1.3 AU"
        }
    },
    "is_sentry_object": false
}